{
    "links": {
        "self": "http://www.neowsapp.com/rest/v1/neo/3989076?api_key=iIulBulltgU6a56xZRHN4H3l9WmuAYTsLGpBGhQ2"
    },
    "id": "3989076",
    "neo_reference_id": "3989076",
    "name": "(2020 BL4)",
    "designation": "2020 BL4",
    "nasa_jpl_url": "http://ssd.jpl.nasa.gov/sbdb.cgi?sstr=3989076",
    "absolute_magnitude_h": 26.547,
    "estimated_diameter": {
        "kilometers": {
            "estimated_diameter_min": 0.0130363189,
            "estimated_diameter_max": 0.0291500953
        },
        "meters": {
            "estimated_diameter_min": 13.0363189236,
            "estimated_diameter_max": 29.1500952896
        },
        "miles": {
            "estimated_diameter_min": 0.0081003905,
            "estimated_diameter_max": 0.0181130239
        },
        "feet": {
            "estimated_diameter_min": 42.7700765773,
            "estimated_diameter_max": 95.6367986298
        }
    },
    "is_potentially_hazardous_asteroid": false,
    "close_approach_data": [
        {
            "close_approach_date": "2019-12-28",
            "close_approach_date_full": "2019-Dec-28 08:31",
            "epoch_date_close_approach": 1577521860000,
            "relative_velocity": {
                "kilometers_per_second": "5.3560164673",
                "kilometers_per_hour": "19281.6592821809",
                "miles_per_hour": "11980.8732356418"
            },
            "miss_distance": {
                "astronomical": "0.0131003312",
                "lunar": "5.0960288368",
                "kilometers": "1959781.643814544",
                "miles": "1217751.8455629472"
            },
            "orbiting_body": "Earth"
        },
        {
            "close_approach_date": "2022-09-03",
            "close_approach_date_full": "2022-Sep-03 19:03",
            "epoch_date_close_approach": 1662231780000,
            "relative_velocity": {
                "kilometers_per_second": "19.1241693465",
                "kilometers_per_hour": "68847.0096474166",
                "miles_per_hour": "42778.8544111961"
            },
            "miss_distance": {
                "astronomical": "0.4616321135",
                "lunar": "179.5748921515",
                "kilometers": "69059180.903198245",
                "miles": "42911385.185875981"
            },
            "orbiting_body": "Earth"
        },
        {
            "close_approach_date": "2150-01-17",
            "close_approach_date_full": "2150-Jan-17 20:59",
            "epoch_date_close_approach": 5681739540000,
            "relative_velocity": {
                "kilometers_per_second": "9.8729655882",
                "kilometers_per_hour": "35542.6761174533",
                "miles_per_hour": "22084.8367242032"
            },
            "miss_distance": {
                "astronomical": "0.1433658059",
                "lunar": "55.7692984951",
                "kilometers": "21447219.193473433",
                "miles": "13326684.0402740554"
            },
            "orbiting_body": "Earth"
        }
    ],
    "orbital_data": {
        "orbit_id": "2",
        "orbit_determination_date": "2020-01-30 07:25:38",
        "first_observation_date": "2020-01-19",
        "last_observation_date": "2020-01-30",
        "data_arc_in_days": 11,
        "observations_used": 19,
        "orbit_uncertainty": "8",
        "minimum_orbit_intersection": ".0108754",
        "jupiter_tisserand_invariant": "5.021",
        "epoch_osculation": "2458870.5",
        "eccentricity": ".2677978741074992",
        "semi_major_axis": "1.279424226564882",
        "inclination": "2.741559482797517",
        "ascending_node_longitude": "85.59865276788798",
        "orbital_period": "528.591629934967",
        "perihelion_distance": ".936797138609175",
        "perihelion_argument": "334.9879073558307",
        "aphelion_distance": "1.622051314520589",
        "perihelion_time": "2458815.781234737863",
        "mean_anomaly": "37.26649151972548",
        "mean_motion": ".6810550519770642",
        "equinox": "J2000",
        "orbit_class": {
            "orbit_class_type": "APO",
            "orbit_class_description": "Near-Earth asteroid orbits which cross the Earth’s orbit similar to that of 1862 Apollo",
            "orbit_class_range": "a (semi-major axis) > 1.0 AU; q (perihelion) < 1.017 AU"
        }
    },
    "is_sentry_object": false
}